[{"OBJECT_NAME":"STARLINK-5988","OBJECT_ID":"2023-058D","EPOCH":"2026-03-09T22:39:15.603840","MEAN_MOTION":15.01262386,"ECCENTRICITY":0.0002859,"INCLINATION":97.6044,"RA_OF_ASC_NODE":70.3858,"ARG_OF_PERICENTER":67.357,"MEAN_ANOMALY":292.7956,"EPHEMERIS_TYPE":0,"CLASSIFICATION_TYPE":"U","NORAD_CAT_ID":56320,"ELEMENT_SET_NO":999,"REV_AT_EPOCH":15782,"BSTAR":5.4072305e-5,"MEAN_MOTION_DOT":6.36e-6,"MEAN_MOTION_DDOT":0},{"OBJECT_NAME":"CZ-4B DEB","OBJECT_ID":"1999-057BZ","EPOCH":"2026-03-09T10:47:31.286688","MEAN_MOTION":14.9004764,"ECCENTRICITY":0.00449145,"INCLINATION":98.5631,"RA_OF_ASC_NODE":129.7133,"ARG_OF_PERICENTER":286.2462,"MEAN_ANOMALY":73.3815,"EPHEMERIS_TYPE":0,"CLASSIFICATION_TYPE":"U","NORAD_CAT_ID":26187,"ELEMENT_SET_NO":999,"REV_AT_EPOCH":39955,"BSTAR":0.00034061798,"MEAN_MOTION_DOT":3.283e-5,"MEAN_MOTION_DDOT":0}]
